COMSATBW-1              
1 35943U 09054B   26065.80802343  .00000022  00000+0  00000+0 0  9991
2 35943   0.0278  96.2575 0003480 264.3498 157.8091  1.00270123 60281
NSS-12                  
1 36032U 09058A   26065.34558611  .00000067  00000+0  00000+0 0  9999
2 36032   0.0029 267.1484 0004908  63.9853  14.3354  1.00273352 59887
THOR 6                  
1 36033U 09058B   26065.58130243 -.00000014  00000+0  00000+0 0  9996
2 36033   0.0252 235.2474 0002016 134.2146   3.2578  1.00272749 59970
INTELSAT 14 (IS-14)     
1 36097U 09064A   26065.78661667 -.00000277  00000+0  00000+0 0  9995
2 36097   0.0272  91.3809 0002475 253.5274  57.7792  1.00272602 59577
EUTELSAT 36B            
1 36101U 09065A   26065.80551007  .00000109  00000+0  00000+0 0  9994
2 36101   0.2328  77.7421 0005866 272.1010 155.1303  1.00272997 59687
INTELSAT 15 (IS-15)     
1 36106U 09067A   26065.81235677  .00000000  00000+0  00000+0 0  9994
2 36106   0.0181 163.0292 0002374 198.1544 180.9506  1.00270306 40203
WGS F3 (USA 211)        
1 36108U 09068A   26065.76451657  .00000098  00000+0  00000+0 0  9996
2 36108   0.3598  86.2719 0002341 314.8467 242.0709  1.00963646 45560
DIRECTV 12              
1 36131U 09075A   26065.56119566 -.00000108  00000+0  00000+0 0  9991
2 36131   0.0028  95.7619 0000364 280.3135 247.5154  1.00272318 45526
BEIDOU-2 G1             
1 36287U 10001A   26065.82490331 -.00000282  00000+0  00000+0 0  9998
2 36287   4.0536  60.6833 0004803 281.0045 260.2775  1.00270467 59142
SDO                     
1 36395U 10005A   26065.56154234 -.00000066  00000+0  00000+0 0  9992
2 36395  34.4350  87.8954 0000235  54.9241 121.7196  1.00275573 59037
INTELSAT 16 (IS-16)     
1 36397U 10006A   26065.56648236 -.00000249  00000+0  00000+0 0  9998
2 36397   0.0187 110.1523 0002018 244.2092 297.6468  1.00272377 58625
EWS-G2 (GOES 15)        
1 36411U 10008A   26065.80811009  .00000018  00000+0  00000+0 0  9997
2 36411   1.0146  85.1017 0002095  17.7080  56.0929  1.00269857 58619
ECHOSTAR 14             
1 36499U 10010A   26065.41433875  .00000000  00000+0  00000+0 0  9995
2 36499   0.0205 169.2037 0001894 179.0930 206.1164  1.00271569 45526
SES-1                   
1 36516U 10016A   26065.56154234 -.00000119  00000+0  00000+0 0  9998
2 36516   0.0486 296.4887 0002482  43.5200 285.4236  1.00272573 58005
ASTRA 3B                
1 36581U 10021A   26065.80022338  .00000134  00000+0  00000+0 0  9998
2 36581   1.2036  84.8896 0003135 282.3124 108.8851  1.00272826 57847
COMSATBW-2              
1 36582U 10021B   26065.79814338  .00000085  00000+0  00000+0 0  9991
2 36582   0.0266 183.2413 0002670 179.9325 101.8438  1.00274044 57923
BEIDOU-2 G3             
1 36590U 10024A   26065.59733582 -.00000136  00000+0  00000+0 0  9990
2 36590   4.2725  61.9231 0008113 321.7478  75.2158  1.00270042 57749
