[{"OBJECT_NAME":"COMSATBW-1","OBJECT_ID":"2009-054B","EPOCH":"2026-03-06T19:23:33.224352","MEAN_MOTION":1.00270123,"ECCENTRICITY":0.000348,"INCLINATION":0.0278,"RA_OF_ASC_NODE":96.2575,"ARG_OF_PERICENTER":264.3498,"MEAN_ANOMALY":157.8091,"EPHEMERIS_TYPE":0,"CLASSIFICATION_TYPE":"U","NORAD_CAT_ID":35943,"ELEMENT_SET_NO":999,"REV_AT_EPOCH":6028,"BSTAR":0,"MEAN_MOTION_DOT":2.2e-7,"MEAN_MOTION_DDOT":0},{"OBJECT_NAME":"NSS-12","OBJECT_ID":"2009-058A","EPOCH":"2026-03-06T08:17:38.639904","MEAN_MOTION":1.00273352,"ECCENTRICITY":0.0004908,"INCLINATION":0.0029,"RA_OF_ASC_NODE":267.1484,"ARG_OF_PERICENTER":63.9853,"MEAN_ANOMALY":14.3354,"EPHEMERIS_TYPE":0,"CLASSIFICATION_TYPE":"U","NORAD_CAT_ID":36032,"ELEMENT_SET_NO":999,"REV_AT_EPOCH":5988,"BSTAR":0,"MEAN_MOTION_DOT":6.7e-7,"MEAN_MOTION_DDOT":0},{"OBJECT_NAME":"THOR 6","OBJECT_ID":"2009-058B","EPOCH":"2026-03-06T13:57:04.529952","MEAN_MOTION":1.00272749,"ECCENTRICITY":0.00020162,"INCLINATION":0.0252,"RA_OF_ASC_NODE":235.2474,"ARG_OF_PERICENTER":134.2146,"MEAN_ANOMALY":3.2578,"EPHEMERIS_TYPE":0,"CLASSIFICATION_TYPE":"U","NORAD_CAT_ID":36033,"ELEMENT_SET_NO":999,"REV_AT_EPOCH":5997,"BSTAR":0,"MEAN_MOTION_DOT":-1.4e-7,"MEAN_MOTION_DDOT":0},{"OBJECT_NAME":"INTELSAT 14 (IS-14)","OBJECT_ID":"2009-064A","EPOCH":"2026-03-06T18:52:43.680288","MEAN_MOTION":1.00272602,"ECCENTRICITY":0.0002475,"INCLINATION":0.0272,"RA_OF_ASC_NODE":91.3809,"ARG_OF_PERICENTER":253.5274,"MEAN_ANOMALY":57.7792,"EPHEMERIS_TYPE":0,"CLASSIFICATION_TYPE":"U","NORAD_CAT_ID":36097,"ELEMENT_SET_NO":999,"REV_AT_EPOCH":5957,"BSTAR":0,"MEAN_MOTION_DOT":-2.77e-6,"MEAN_MOTION_DDOT":0},{"OBJECT_NAME":"EUTELSAT 36B","OBJECT_ID":"2009-065A","EPOCH":"2026-03-06T19:19:56.070048","MEAN_MOTION":1.00272997,"ECCENTRICITY":0.0005866,"INCLINATION":0.2328,"RA_OF_ASC_NODE":77.7421,"ARG_OF_PERICENTER":272.101,"MEAN_ANOMALY":155.1303,"EPHEMERIS_TYPE":0,"CLASSIFICATION_TYPE":"U","NORAD_CAT_ID":36101,"ELEMENT_SET_NO":999,"REV_AT_EPOCH":5968,"BSTAR":0,"MEAN_MOTION_DOT":1.09e-6,"MEAN_MOTION_DDOT":0},{"OBJECT_NAME":"INTELSAT 15 (IS-15)","OBJECT_ID":"2009-067A","EPOCH":"2026-03-06T19:29:47.624928","MEAN_MOTION":1.00270306,"ECCENTRICITY":0.0002374,"INCLINATION":0.0181,"RA_OF_ASC_NODE":163.0292,"ARG_OF_PERICENTER":198.1544,"MEAN_ANOMALY":180.9506,"EPHEMERIS_TYPE":0,"CLASSIFICATION_TYPE":"U","NORAD_CAT_ID":36106,"ELEMENT_SET_NO":999,"REV_AT_EPOCH":4020,"BSTAR":0,"MEAN_MOTION_DOT":0,"MEAN_MOTION_DDOT":0},{"OBJECT_NAME":"WGS F3 (USA 211)","OBJECT_ID":"2009-068A","EPOCH":"2026-03-06T18:20:54.231648","MEAN_MOTION":1.00963646,"ECCENTRICITY":0.0002341,"INCLINATION":0.3598,"RA_OF_ASC_NODE":86.2719,"ARG_OF_PERICENTER":314.8467,"MEAN_ANOMALY":242.0709,"EPHEMERIS_TYPE":0,"CLASSIFICATION_TYPE":"U","NORAD_CAT_ID":36108,"ELEMENT_SET_NO":999,"REV_AT_EPOCH":4556,"BSTAR":0,"MEAN_MOTION_DOT":9.8e-7,"MEAN_MOTION_DDOT":0},{"OBJECT_NAME":"DIRECTV 12","OBJECT_ID":"2009-075A","EPOCH":"2026-03-06T13:28:07.305024","MEAN_MOTION":1.00272318,"ECCENTRICITY":3.647e-5,"INCLINATION":0.0028,"RA_OF_ASC_NODE":95.7619,"ARG_OF_PERICENTER":280.3135,"MEAN_ANOMALY":247.5154,"EPHEMERIS_TYPE":0,"CLASSIFICATION_TYPE":"U","NORAD_CAT_ID":36131,"ELEMENT_SET_NO":999,"REV_AT_EPOCH":4552,"BSTAR":0,"MEAN_MOTION_DOT":-1.08e-6,"MEAN_MOTION_DDOT":0},{"OBJECT_NAME":"BEIDOU-2 G1","OBJECT_ID":"2010-001A","EPOCH":"2026-03-06T19:47:51.645984","MEAN_MOTION":1.00270467,"ECCENTRICITY":0.0004803,"INCLINATION":4.0536,"RA_OF_ASC_NODE":60.6833,"ARG_OF_PERICENTER":281.0045,"MEAN_ANOMALY":260.2775,"EPHEMERIS_TYPE":0,"CLASSIFICATION_TYPE":"U","NORAD_CAT_ID":36287,"ELEMENT_SET_NO":999,"REV_AT_EPOCH":5914,"BSTAR":0,"MEAN_MOTION_DOT":-2.82e-6,"MEAN_MOTION_DDOT":0},{"OBJECT_NAME":"SDO","OBJECT_ID":"2010-005A","EPOCH":"2026-03-06T13:28:37.258176","MEAN_MOTION":1.00275573,"ECCENTRICITY":2.353e-5,"INCLINATION":34.435,"RA_OF_ASC_NODE":87.8954,"ARG_OF_PERICENTER":54.9241,"MEAN_ANOMALY":121.7196,"EPHEMERIS_TYPE":0,"CLASSIFICATION_TYPE":"U","NORAD_CAT_ID":36395,"ELEMENT_SET_NO":999,"REV_AT_EPOCH":5903,"BSTAR":0,"MEAN_MOTION_DOT":-6.6e-7,"MEAN_MOTION_DDOT":0},{"OBJECT_NAME":"INTELSAT 16 (IS-16)","OBJECT_ID":"2010-006A","EPOCH":"2026-03-06T13:35:44.075904","MEAN_MOTION":1.00272377,"ECCENTRICITY":0.00020185,"INCLINATION":0.0187,"RA_OF_ASC_NODE":110.1523,"ARG_OF_PERICENTER":244.2092,"MEAN_ANOMALY":297.6468,"EPHEMERIS_TYPE":0,"CLASSIFICATION_TYPE":"U","NORAD_CAT_ID":36397,"ELEMENT_SET_NO":999,"REV_AT_EPOCH":5862,"BSTAR":0,"MEAN_MOTION_DOT":-2.49e-6,"MEAN_MOTION_DDOT":0},{"OBJECT_NAME":"EWS-G2 (GOES 15)","OBJECT_ID":"2010-008A","EPOCH":"2026-03-06T19:23:40.711776","MEAN_MOTION":1.00269857,"ECCENTRICITY":0.0002095,"INCLINATION":1.0146,"RA_OF_ASC_NODE":85.1017,"ARG_OF_PERICENTER":17.708,"MEAN_ANOMALY":56.0929,"EPHEMERIS_TYPE":0,"CLASSIFICATION_TYPE":"U","NORAD_CAT_ID":36411,"ELEMENT_SET_NO":999,"REV_AT_EPOCH":5861,"BSTAR":0,"MEAN_MOTION_DOT":1.8e-7,"MEAN_MOTION_DDOT":0},{"OBJECT_NAME":"ECHOSTAR 14","OBJECT_ID":"2010-010A","EPOCH":"2026-03-06T09:56:38.868000","MEAN_MOTION":1.00271569,"ECCENTRICITY":0.0001894,"INCLINATION":0.0205,"RA_OF_ASC_NODE":169.2037,"ARG_OF_PERICENTER":179.093,"MEAN_ANOMALY":206.1164,"EPHEMERIS_TYPE":0,"CLASSIFICATION_TYPE":"U","NORAD_CAT_ID":36499,"ELEMENT_SET_NO":999,"REV_AT_EPOCH":4552,"BSTAR":0,"MEAN_MOTION_DOT":0,"MEAN_MOTION_DDOT":0},{"OBJECT_NAME":"SES-1","OBJECT_ID":"2010-016A","EPOCH":"2026-03-06T13:28:37.258176","MEAN_MOTION":1.00272573,"ECCENTRICITY":0.00024825,"INCLINATION":0.0486,"RA_OF_ASC_NODE":296.4887,"ARG_OF_PERICENTER":43.52,"MEAN_ANOMALY":285.4236,"EPHEMERIS_TYPE":0,"CLASSIFICATION_TYPE":"U","NORAD_CAT_ID":36516,"ELEMENT_SET_NO":999,"REV_AT_EPOCH":5800,"BSTAR":0,"MEAN_MOTION_DOT":-1.19e-6,"MEAN_MOTION_DDOT":0},{"OBJECT_NAME":"ASTRA 3B","OBJECT_ID":"2010-021A","EPOCH":"2026-03-06T19:12:19.300032","MEAN_MOTION":1.00272826,"ECCENTRICITY":0.0003135,"INCLINATION":1.2036,"RA_OF_ASC_NODE":84.8896,"ARG_OF_PERICENTER":282.3124,"MEAN_ANOMALY":108.8851,"EPHEMERIS_TYPE":0,"CLASSIFICATION_TYPE":"U","NORAD_CAT_ID":36581,"ELEMENT_SET_NO":999,"REV_AT_EPOCH":5784,"BSTAR":0,"MEAN_MOTION_DOT":1.34e-6,"MEAN_MOTION_DDOT":0},{"OBJECT_NAME":"COMSATBW-2","OBJECT_ID":"2010-021B","EPOCH":"2026-03-06T19:09:19.588032","MEAN_MOTION":1.00274044,"ECCENTRICITY":0.000267,"INCLINATION":0.0266,"RA_OF_ASC_NODE":183.2413,"ARG_OF_PERICENTER":179.9325,"MEAN_ANOMALY":101.8438,"EPHEMERIS_TYPE":0,"CLASSIFICATION_TYPE":"U","NORAD_CAT_ID":36582,"ELEMENT_SET_NO":999,"REV_AT_EPOCH":5792,"BSTAR":0,"MEAN_MOTION_DOT":8.5e-7,"MEAN_MOTION_DDOT":0},{"OBJECT_NAME":"BEIDOU-2 G3","OBJECT_ID":"2010-024A","EPOCH":"2026-03-06T14:20:09.814848","MEAN_MOTION":1.00270042,"ECCENTRICITY":0.00081138,"INCLINATION":4.2725,"RA_OF_ASC_NODE":61.9231,"ARG_OF_PERICENTER":321.7478,"MEAN_ANOMALY":75.2158,"EPHEMERIS_TYPE":0,"CLASSIFICATION_TYPE":"U","NORAD_CAT_ID":36590,"ELEMENT_SET_NO":999,"REV_AT_EPOCH":5774,"BSTAR":0,"MEAN_MOTION_DOT":-1.36e-6,"MEAN_MOTION_DDOT":0}]
